[{"OBJECT_NAME":"AEROCUBE 6B","OBJECT_ID":"2014-033AN","EPOCH":"2026-03-09T10:13:48.857088","MEAN_MOTION":14.98232474,"ECCENTRICITY":0.00374529,"INCLINATION":97.7129,"RA_OF_ASC_NODE":236.1645,"ARG_OF_PERICENTER":343.23,"MEAN_ANOMALY":16.7681,"EPHEMERIS_TYPE":0,"CLASSIFICATION_TYPE":"U","NORAD_CAT_ID":40046,"ELEMENT_SET_NO":999,"REV_AT_EPOCH":63181,"BSTAR":0.00066368498,"MEAN_MOTION_DOT":7.941e-5,"MEAN_MOTION_DDOT":0},{"OBJECT_NAME":"STARLINK-35856","OBJECT_ID":"2025-293L","EPOCH":"2026-03-09T19:34:59.485728","MEAN_MOTION":14.98330046,"ECCENTRICITY":0.00028552,"INCLINATION":70.0021,"RA_OF_ASC_NODE":94.2635,"ARG_OF_PERICENTER":271.6812,"MEAN_ANOMALY":88.402,"EPHEMERIS_TYPE":0,"CLASSIFICATION_TYPE":"U","NORAD_CAT_ID":67013,"ELEMENT_SET_NO":999,"REV_AT_EPOCH":1490,"BSTAR":0.00042668337,"MEAN_MOTION_DOT":5.002e-5,"MEAN_MOTION_DDOT":0}]
